start=new Date('2021-12-08T00:00:00.000Z').valueOf();
sats=[{"OBJECT_TYPE":"PAYLOAD","SEMIMAJOR_AXIS":"6925.392","TLE_LINE1":"1 48604U 21041BD  21341.52616120 -.00000324  00000-0 -28240-5 0  9996","ECCENTRICITY":"0.00020190","NORAD_CAT_ID":"48604","ELEMENT_SET_NO":"999","GP_ID":"191276836","PERIOD":"95.593","CLASSIFICATION_TYPE":"U","MEAN_MOTION_DOT":"-0.00000324","PERIAPSIS":"545.858","ARG_OF_PERICENTER":"60.6724","BSTAR":"-0.00000282400000","INCLINATION":"53.0560","MEAN_MOTION":"15.06385941","COUNTRY_CODE":"US","MEAN_ELEMENT_THEORY":"SGP4","REF_FRAME":"TEME","DECAY_DATE":null,"RCS_SIZE":"LARGE","SITE":"AFETR","EPOCH":"2021-12-07T12:37:40.327680","RA_OF_ASC_NODE":"274.0400","REV_AT_EPOCH":"3223","TIME_SYSTEM":"UTC","OBJECT_ID":"2021-041BD","MEAN_ANOMALY":"299.4467","OBJECT_NAME":"STARLINK-2757","EPHEMERIS_TYPE":"0","MEAN_MOTION_DDOT":"0.0000000000000","LAUNCH_DATE":"2021-05-15","CENTER_NAME":"EARTH","TLE_LINE2":"2 48604  53.0560 274.0400 0002019  60.6724 299.4467 15.06385941 32230","APOAPSIS":"548.655","FILE":"3234994"},{"MEAN_MOTION_DDOT":"0.0000000000000","EPHEMERIS_TYPE":"0","LAUNCH_DATE":"2021-05-26","FILE":"3234816","TLE_LINE2":"2 48638  53.0560 249.2501 0002467  59.8302 300.2931 15.06400905 29671","APOAPSIS":"548.919","CENTER_NAME":"EARTH","REF_FRAME":"TEME","MEAN_ELEMENT_THEORY":"SGP4","COUNTRY_CODE":"US","SITE":"AFETR","RCS_SIZE":"LARGE","DECAY_DATE":null,"TIME_SYSTEM":"UTC","REV_AT_EPOCH":"2967","RA_OF_ASC_NODE":"249.2501","EPOCH":"2021-12-07T11:27:58.367232","OBJECT_NAME":"STARLINK-2758","MEAN_ANOMALY":"300.2931","OBJECT_ID":"2021-044A","MEAN_MOTION_DOT":"0.00001789","PERIOD":"95.592","CLASSIFICATION_TYPE":"U","PERIAPSIS":"545.502","BSTAR":"0.00013897000000","ARG_OF_PERICENTER":"59.8302","MEAN_MOTION":"15.06400905","INCLINATION":"53.0560","OBJECT_TYPE":"PAYLOAD","NORAD_CAT_ID":"48638","TLE_LINE1":"1 48638U 21044A   21341.47775888  .00001789  00000-0  13897-3 0  9991","ECCENTRICITY":"0.00024670","SEMIMAJOR_AXIS":"6925.346","GP_ID":"191272988","ELEMENT_SET_NO":"999"},{"PERIOD":"95.592","CLASSIFICATION_TYPE":"U","MEAN_MOTION_DOT":"0.00001959","PERIAPSIS":"545.776","BSTAR":"0.00015039000000","ARG_OF_PERICENTER":"68.1774","MEAN_MOTION":"15.06396162","INCLINATION":"53.0548","OBJECT_TYPE":"PAYLOAD","NORAD_CAT_ID":"48639","SEMIMAJOR_AXIS":"6925.360","TLE_LINE1":"1 48639U 21044B   21341.46300545  .00001959  00000-0  15039-3 0  9994","ECCENTRICITY":"0.00020930","ELEMENT_SET_NO":"999","GP_ID":"191272518","MEAN_MOTION_DDOT":"0.0000000000000","EPHEMERIS_TYPE":"0","LAUNCH_DATE":"2021-05-26","FILE":"3234816","CENTER_NAME":"EARTH","TLE_LINE2":"2 48639  53.0548 249.3077 0002093  68.1774 291.9437 15.06396162 29674","APOAPSIS":"548.675","MEAN_ELEMENT_THEORY":"SGP4","REF_FRAME":"TEME","COUNTRY_CODE":"US","SITE":"AFETR","DECAY_DATE":null,"RCS_SIZE":"LARGE","RA_OF_ASC_NODE":"249.3077","TIME_SYSTEM":"UTC","REV_AT_EPOCH":"2967","EPOCH":"2021-12-07T11:06:43.670880","OBJECT_NAME":"STARLINK-2739","OBJECT_ID":"2021-044B","MEAN_ANOMALY":"291.9437"},{"PERIAPSIS":"545.632","PERIOD":"95.592","CLASSIFICATION_TYPE":"U","MEAN_MOTION_DOT":"0.00000498","MEAN_MOTION":"15.06400469","INCLINATION":"53.0565","BSTAR":"0.00005233300000","ARG_OF_PERICENTER":"59.7254","OBJECT_TYPE":"PAYLOAD","ELEMENT_SET_NO":"999","GP_ID":"191300929","NORAD_CAT_ID":"48640","SEMIMAJOR_AXIS":"6925.347","TLE_LINE1":"1 48640U 21044C   21341.76157260  .00000498  00000-0  52333-4 0  9999","ECCENTRICITY":"0.00022810","MEAN_MOTION_DDOT":"0.0000000000000","EPHEMERIS_TYPE":"0","FILE":"3235143","CENTER_NAME":"EARTH","TLE_LINE2":"2 48640  53.0565 247.9785 0002281  59.7254 300.3960 15.06400469 29710","APOAPSIS":"548.792","LAUNCH_DATE":"2021-05-26","SITE":"AFETR","RCS_SIZE":"LARGE","DECAY_DATE":null,"MEAN_ELEMENT_THEORY":"SGP4","REF_FRAME":"TEME","COUNTRY_CODE":"US","OBJECT_NAME":"STARLINK-2736","OBJECT_ID":"2021-044C","MEAN_ANOMALY":"300.3960","RA_OF_ASC_NODE":"247.9785","REV_AT_EPOCH":"2971","TIME_SYSTEM":"UTC","EPOCH":"2021-12-07T18:16:39.872640"},{"EPHEMERIS_TYPE":"0","MEAN_MOTION_DDOT":"0.0000000000000","TLE_LINE2":"2 48641  53.0560 252.8053 0002218  68.5707 291.5519 15.06386334 29658","APOAPSIS":"548.791","CENTER_NAME":"EARTH","FILE":"3235143","LAUNCH_DATE":"2021-05-26","RCS_SIZE":"LARGE","DECAY_DATE":null,"SITE":"AFETR","COUNTRY_CODE":"US","REF_FRAME":"TEME","MEAN_ELEMENT_THEORY":"SGP4","MEAN_ANOMALY":"291.5519","OBJECT_ID":"2021-044D","OBJECT_NAME":"STARLINK-2754","EPOCH":"2021-12-07T19:13:05.817792","REV_AT_EPOCH":"2965","TIME_SYSTEM":"UTC","RA_OF_ASC_NODE":"252.8053","PERIAPSIS":"545.719","MEAN_MOTION_DOT":"-0.00000532","PERIOD":"95.593","CLASSIFICATION_TYPE":"U","INCLINATION":"53.0560","MEAN_MOTION":"15.06386334","ARG_OF_PERICENTER":"68.5707","BSTAR":"-0.00001678200000","OBJECT_TYPE":"PAYLOAD","GP_ID":"191301096","ELEMENT_SET_NO":"999","TLE_LINE1":"1 48641U 21044D   21341.80076178 -.00000532  00000-0 -16782-4 0  9992","ECCENTRICITY":"0.00022180","SEMIMAJOR_AXIS":"6925.390","NORAD_CAT_ID":"48641"},{"MEAN_MOTION_DDOT":"0.0000000000000","EPHEMERIS_TYPE":"0","FILE":"3235143","APOAPSIS":"548.684","TLE_LINE2":"2 48642  53.0548 253.0280 0002115  62.6538 297.4666 15.06398248 29647","CENTER_NAME":"EARTH","LAUNCH_DATE":"2021-05-26","SITE":"AFETR","DECAY_DATE":null,"RCS_SIZE":"LARGE","REF_FRAME":"TEME","MEAN_ELEMENT_THEORY":"SGP4","COUNTRY_CODE":"US","OBJECT_NAME":"STARLINK-2646","MEAN_ANOMALY":"297.4666","OBJECT_ID":"2021-044E","TIME_SYSTEM":"UTC","REV_AT_EPOCH":"2964","RA_OF_ASC_NODE":"253.0280","EPOCH":"2021-12-07T17:57:24.960384","PERIAPSIS":"545.754","MEAN_MOTION_DOT":"0.00001096","PERIOD":"95.592","CLASSIFICATION_TYPE":"U","MEAN_MOTION":"15.06398248","INCLINATION":"53.0548","BSTAR":"0.00009250500000","ARG_OF_PERICENTER":"62.6538","OBJECT_TYPE":"PAYLOAD","GP_ID":"191301601","ELEMENT_SET_NO":"999","NORAD_CAT_ID":"48642","ECCENTRICITY":"0.00021150","TLE_LINE1":"1 48642U 21044E   21341.74820556  .00001096  00000-0  92505-4 0  9994","SEMIMAJOR_AXIS":"6925.354"},{"DECAY_DATE":null,"RCS_SIZE":"LARGE","SITE":"AFETR","COUNTRY_CODE":"US","REF_FRAME":"TEME","MEAN_ELEMENT_THEORY":"SGP4","MEAN_ANOMALY":"294.1158","OBJECT_ID":"2021-044F","OBJECT_NAME":"STARLINK-2704","EPOCH":"2021-12-07T11:10:05.122848","REV_AT_EPOCH":"2960","TIME_SYSTEM":"UTC","RA_OF_ASC_NODE":"254.3042","EPHEMERIS_TYPE":"0","MEAN_MOTION_DDOT":"0.0000000000000","APOAPSIS":"548.675","TLE_LINE2":"2 48643  53.0551 254.3042 0002111  66.0052 294.1158 15.06400026 29601","CENTER_NAME":"EARTH","FILE":"3234816","LAUNCH_DATE":"2021-05-26","OBJECT_TYPE":"PAYLOAD","GP_ID":"191272204","ELEMENT_SET_NO":"999","ECCENTRICITY":"0.00021110","TLE_LINE1":"1 48643U 21044F   21341.46533707  .00000220  00000-0  33660-4 0  9998","SEMIMAJOR_AXIS":"6925.348","NORAD_CAT_ID":"48643","PERIAPSIS":"545.752","MEAN_MOTION_DOT":"0.00000220","CLASSIFICATION_TYPE":"U","PERIOD":"95.592","INCLINATION":"53.0551","MEAN_MOTION":"15.06400026","ARG_OF_PERICENTER":"66.0052","BSTAR":"0.00003366000000"},{"ELEMENT_SET_NO":"999","GP_ID":"191300588","NORAD_CAT_ID":"48644","SEMIMAJOR_AXIS":"6925.361","ECCENTRICITY":"0.00019870","TLE_LINE1":"1 48644U 21044G   21341.85973601 -.00000659  00000-0 -25311-4 0  9995","OBJECT_TYPE":"PAYLOAD","MEAN_MOTION":"15.06395854","INCLINATION":"53.0566","BSTAR":"-0.00002531100000","ARG_OF_PERICENTER":"56.8420","PERIAPSIS":"545.850","PERIOD":"95.592","CLASSIFICATION_TYPE":"U","MEAN_MOTION_DOT":"-0.00000659","OBJECT_NAME":"STARLINK-2695","OBJECT_ID":"2021-044G","MEAN_ANOMALY":"303.2759","RA_OF_ASC_NODE":"252.5403","TIME_SYSTEM":"UTC","REV_AT_EPOCH":"2966","EPOCH":"2021-12-07T20:38:01.191264","SITE":"AFETR","RCS_SIZE":"LARGE","DECAY_DATE":null,"MEAN_ELEMENT_THEORY":"SGP4","REF_FRAME":"TEME","COUNTRY_CODE":"US","FILE":"3235143","CENTER_NAME":"EARTH","TLE_LINE2":"2 48644  53.0566 252.5403 0001987  56.8420 303.2759 15.06395854 29662","APOAPSIS":"548.602","LAUNCH_DATE":"2021-05-26","MEAN_MOTION_DDOT":"0.0000000000000","EPHEMERIS_TYPE":"0"},{"COUNTRY_CODE":"US","MEAN_ELEMENT_THEORY":"SGP4","REF_FRAME":"TEME","RCS_SIZE":"LARGE","DECAY_DATE":null,"SITE":"AFETR","EPOCH":"2021-12-07T18:57:10.130112","RA_OF_ASC_NODE":"252.8518","REV_AT_EPOCH":"2965","TIME_SYSTEM":"UTC","OBJECT_ID":"2021-044H","MEAN_ANOMALY":"298.3021","OBJECT_NAME":"STARLINK-2733","EPHEMERIS_TYPE":"0","MEAN_MOTION_DDOT":"0.0000000000000","LAUNCH_DATE":"2021-05-26","CENTER_NAME":"EARTH","TLE_LINE2":"2 48645  53.0568 252.8518 0002137  61.8183 298.3021 15.06398353 29657","APOAPSIS":"548.699","FILE":"3235143","OBJECT_TYPE":"PAYLOAD","SEMIMAJOR_AXIS":"6925.354","TLE_LINE1":"1 48645U 21044H   21341.78970058 -.00000239  00000-0  28913-5 0  9996","ECCENTRICITY":"0.00021370","NORAD_CAT_ID":"48645","ELEMENT_SET_NO":"999","GP_ID":"191301432","PERIOD":"95.592","CLASSIFICATION_TYPE":"U","MEAN_MOTION_DOT":"-0.00000239","PERIAPSIS":"545.739","ARG_OF_PERICENTER":"61.8183","BSTAR":"0.00000289130000","INCLINATION":"53.0568","MEAN_MOTION":"15.06398353"},{"LAUNCH_DATE":"2021-05-26","FILE":"3234816","CENTER_NAME":"EARTH","TLE_LINE2":"2 48646  53.0546 254.3499 0002543  59.3140 300.8099 15.06389333 29602","APOAPSIS":"549.007","MEAN_MOTION_DDOT":"0.0000000000000","EPHEMERIS_TYPE":"0","RA_OF_ASC_NODE":"254.3499","REV_AT_EPOCH":"2960","TIME_SYSTEM":"UTC","EPOCH":"2021-12-07T10:54:10.334592","OBJECT_NAME":"STARLINK-2732","OBJECT_ID":"2021-044J","MEAN_ANOMALY":"300.8099","MEAN_ELEMENT_THEORY":"SGP4","REF_FRAME":"TEME","COUNTRY_CODE":"US","SITE":"AFETR","DECAY_DATE":null,"RCS_SIZE":"LARGE","BSTAR":"0.00000214790000","ARG_OF_PERICENTER":"59.3140","MEAN_MOTION":"15.06389333","INCLINATION":"53.0546","PERIOD":"95.593","CLASSIFICATION_TYPE":"U","MEAN_MOTION_DOT":"-0.00000250","PERIAPSIS":"545.485","NORAD_CAT_ID":"48646","SEMIMAJOR_AXIS":"6925.381","TLE_LINE1":"1 48646U 21044J   21341.45428628 -.00000250  00000-0  21479-5 0  9995","ECCENTRICITY":"0.00025430","ELEMENT_SET_NO":"999","GP_ID":"191272989","OBJECT_TYPE":"PAYLOAD"}];
